NORAD_CAT_ID,OBJECT_NAME,OBJECT_TYPE,EPOCH,MEAN_MOTION,ECCENTRICITY,INCLINATION,RA_OF_ASC_NODE,ARG_OF_PERICENTER,MEAN_ANOMALY,BSTAR,MEAN_MOTION_DOT,MEAN_MOTION_DDOT,TLE_LINE0,TLE_LINE1,TLE_LINE2,SEMIMAJOR_AXIS,PERIOD,APOGEE,PERIGEE,DECAYED
52348.0,STARLINK-3829,PAYLOAD,2022-05-26 06:00:00,15.73209366,0.0001262999999999,53.2138,305.7899,64.9459,250.7681,-8.660200000000001e-05,-0.0001276,0.0,0 STARLINK-3829,1 52348U 22045T   22146.25001157 -.00012760  00000-0 -86602-4 0  9995,2 52348  53.2138 305.7899 0001263  64.9459 250.7681 15.73209366  6698,6727.868,91.533,350.583,348.884,0.0
52348.0,STARLINK-3829,PAYLOAD,2022-05-26 14:00:01,15.73197579,0.0001345,53.2142,304.1409,62.724,341.9191,-0.00017052,-0.00024479,0.0,0 STARLINK-3829,1 52348U 22045T   22146.58334491 -.00024479  00000-0 -17052-3 0  9993,2 52348  53.2142 304.1409 0001345  62.7240 341.9191 15.73197579  1302,6727.901999999999,91.533,350.672,348.862,0.0
52348.0,STARLINK-3829,PAYLOAD,2022-05-26 22:00:00,15.73175963,0.0001501,53.2138,302.4925,52.3739,81.1882,7.6736e-05,0.00010151,0.0,0 STARLINK-3829,1 52348U 22045T   22146.91667824  .00010151  00000-0  76736-4 0  9994,2 52348  53.2138 302.4925 0001501  52.3739  81.1882 15.73175963  1306,6727.964,91.535,350.839,348.819,0.0
52348.0,STARLINK-3829,PAYLOAD,2022-05-27 02:00:01,15.73166347,0.0001515,53.2137,301.6666,58.1259,299.8742,-2.1592e-05,-3.645e-05,0.0,0 STARLINK-3829,1 52348U 22045T   22147.08334491 -.00003645  00000-0 -21592-4 0  9996,2 52348  53.2137 301.6666 0001515  58.1259 299.8742 15.73166347  6825,6727.991,91.535,350.875,348.837,0.0
52348.0,STARLINK-3829,PAYLOAD,2022-05-27 14:12:24,15.73180481,0.0001541,53.2147,299.1485,64.4726,295.6454,0.0001205,0.0001631,0.0,0 STARLINK-3829,1 52348U 22045T   22147.59195071  .00016310  00000-0  12050-3 0  9990,2 52348  53.2147 299.1485 0001541  64.4726 295.6454 15.73180481  6913,6727.951,91.534,350.853,348.779,0.0
52348.0,STARLINK-3829,PAYLOAD,2022-05-27 16:00:00,15.73246774,0.000144,53.2135,298.7805,52.5608,11.014,-0.00053907,-0.00075749,0.0,0 STARLINK-3829,1 52348U 22045T   22147.66667824 -.00075749  00000-0 -53907-3 0  9997,2 52348  53.2135 298.7805 0001440  52.5608  11.0140 15.73246774  6927,6727.762,91.53,350.596,348.658,0.0
52348.0,STARLINK-3829,PAYLOAD,2022-05-27 22:00:01,15.73169353,0.0001404,53.2133,297.5436,44.7671,355.6036,0.00051018,0.00071498,0.0,0 STARLINK-3829,1 52348U 22045T   22147.91668981  .00071498  00000-0  51018-3 0  9996,2 52348  53.2133 297.5436 0001404  44.7671 355.6036 15.73169353  1300,6727.983,91.535,350.792,348.903,0.0
52348.0,STARLINK-3829,PAYLOAD,2022-05-28 06:00:02,15.73220814,0.0001252999999999,53.2137,295.8918,50.6238,78.6836,0.00029337,0.00040789,0.0,0 STARLINK-3829,1 52348U 22045T   22148.25002315  .00040789  00000-0  29337-3 0  9995,2 52348  53.2137 295.8918 0001253  50.6238  78.6836 15.73220814  7011,6727.8359999999975,91.532,350.5440000000001,348.858,0.0
52348.0,STARLINK-3829,PAYLOAD,2022-05-28 14:00:01,15.73241953,0.0001468,53.2142,294.2431,49.4368,168.7875,5.1177e-05,6.579999999999999e-05,0.0,0 STARLINK-3829,1 52348U 22045T   22148.58334491  .00006580  00000-0  51177-4 0  9993,2 52348  53.2142 294.2431 0001468  49.4368 168.7875 15.73241953  1305,6727.776,91.531,350.62800000000016,348.653,0.0
52348.0,STARLINK-3829,PAYLOAD,2022-05-28 19:10:30,15.73228023,0.0001526,53.2144,293.1759,52.4382,307.6776,4.7593e-05,6.072e-05,0.0,0 STARLINK-3829,1 52348U 22045T   22148.79896655  .00006072  00000-0  47593-4 0  9994,2 52348  53.2144 293.1759 0001526  52.4382 307.6776 15.73228023  7104,6727.815,91.532,350.707,348.654,0.0
52348.0,STARLINK-3829,PAYLOAD,2022-05-29 06:00:02,15.7317378,0.0001353,53.214,290.9426,46.7708,349.4208,-0.00017374,-0.00024904,0.0,0 STARLINK-3829,1 52348U 22045T   22149.25002315 -.00024904  00000-0 -17374-3 0  9997,2 52348  53.2140 290.9426 0001353  46.7708 349.4208 15.73173780  7172,6727.97,91.535,350.745,348.925,0.0
52348.0,STARLINK-3829,PAYLOAD,2022-05-29 13:28:16,15.73200719,0.0001801,53.2141,289.404,16.3691,343.7386,-4.740600000000001e-05,-7.269e-05,0.0,0 STARLINK-3829,1 52348U 22045T   22149.56130206 -.00007269  00000-0 -47406-4 0  9997,2 52348  53.2141 289.4040 0001801  16.3691 343.7386 15.73200719  7223,6727.893,91.533,350.97,348.546,0.0
52348.0,STARLINK-3829,PAYLOAD,2022-05-29 19:34:11,15.73190691,0.00012,53.2133,288.1456,43.0514,317.06,-3.2773e-05,-5.214e-05,0.0,0 STARLINK-3829,1 52348U 22045T   22149.81541481 -.00005214  00000-0 -32773-4 0  9995,2 52348  53.2133 288.1456 0001200  43.0514 317.0600 15.73190691  7269,6727.922,91.534,350.594,348.97900000000016,0.0
52348.0,STARLINK-3829,PAYLOAD,2022-05-30 14:00:01,15.73246919,0.0001675,53.2143,284.3459,40.5855,351.1675,-0.00039328,-0.00055564,0.0,0 STARLINK-3829,1 52348U 22045T   22150.58334491 -.00055564  00000-0 -39328-3 0  9997,2 52348  53.2143 284.3459 0001675  40.5855 351.1675 15.73246919  1302,6727.761,91.53,350.75300000000016,348.5,0.0
52348.0,STARLINK-3829,PAYLOAD,2022-05-30 22:00:00,15.73187823,0.0001720999999999,53.214,282.6967,34.2321,86.4829,0.00022879,0.00031594,0.0,0 STARLINK-3829,1 52348U 22045T   22150.91667824  .00031594  00000-0  22879-3 0  9991,2 52348  53.2140 282.6967 0001721  34.2321  86.4829 15.73187823  7431,6727.93,91.534,350.95300000000015,348.63699999999994,0.0
52348.0,STARLINK-3829,PAYLOAD,2022-05-31 06:00:02,15.73188682,0.0001611,53.2141,281.0452,40.1314,169.5862,5.7312e-05,7.426e-05,0.0,0 STARLINK-3829,1 52348U 22045T   22151.25002315  .00007426  00000-0  57312-4 0  9995,2 52348  53.2141 281.0452 0001611  40.1314 169.5862 15.73188682  1304,6727.927,91.534,350.876,348.709,0.0
52348.0,STARLINK-3829,PAYLOAD,2022-05-31 14:00:01,15.73185695,0.0001845,53.214,279.3976,40.3244,258.2287,9.1907e-05,0.00012289,0.0,0 STARLINK-3829,1 52348U 22045T   22151.58334491  .00012289  00000-0  91907-4 0  9995,2 52348  53.2140 279.3976 0001845  40.3244 258.2287 15.73185695  7536,6727.936,91.534,351.042,348.56,0.0
52348.0,STARLINK-3829,PAYLOAD,2022-05-31 22:00:00,15.73220465,0.0001903,53.2135,277.7484,35.5977,351.8862,0.00026292,0.00036472,0.0,0 STARLINK-3829,1 52348U 22045T   22151.91667824  .00036472  00000-0  26292-3 0  9995,2 52348  53.2135 277.7484 0001903  35.5977 351.8862 15.73220465  7590,6727.837,91.532,350.982,348.422,0.0
52348.0,STARLINK-3829,PAYLOAD,2022-06-01 14:00:01,15.73251467,0.0001764,53.2141,274.4489,29.4339,176.0054,-0.00060236,-0.00084504,0.0,0 STARLINK-3829,1 52348U 22045T   22152.58334491 -.00084504  00000-0 -60236-3 0  9997,2 52348  53.2141 274.4489 0001764  29.4339 176.0054 15.73251467  7692,6727.748000000001,91.53,350.8,348.427,0.0
52348.0,STARLINK-3829,PAYLOAD,2022-06-01 20:00:01,15.73177673,0.0001836,53.2138,273.2123,24.015,158.1486,0.00027302,0.00037833,0.0,0 STARLINK-3829,1 52348U 22045T   22152.83334491  .00037833  00000-0  27302-3 0  9993,2 52348  53.2138 273.2123 0001836  24.0150 158.1486 15.73177673  1300,6727.959,91.534,351.059,348.589,0.0
52348.0,STARLINK-3829,PAYLOAD,2022-06-02 16:34:29,15.73198893,0.0001127,53.2143,268.9684,16.2873,343.8183,-2.3946e-06,-9.56e-06,0.0,0 STARLINK-3829,1 52348U 22045T   22153.69061930 -.00000956  00000-0 -23946-5 0  9993,2 52348  53.2143 268.9684 0001127  16.2873 343.8183 15.73198893  7879,6727.898,91.533,350.522,349.005,0.0
52348.0,STARLINK-3829,PAYLOAD,2022-06-03 07:49:18,15.73207726,0.0001518,53.2149,265.823,21.4714,338.6369,0.0001089,0.00014695,0.0,0 STARLINK-3829,1 52348U 22045T   22154.32590349  .00014695  00000-0  10890-3 0  9990,2 52348  53.2149 265.8230 0001518  21.4714 338.6369 15.73207726  7979,6727.873000000001,91.533,350.759,348.717,0.0
52348.0,STARLINK-3829,PAYLOAD,2022-06-03 20:00:51,15.7391,0.0003042,53.2139,263.3082,351.9429,8.1542,0.0027971,0.00425209,0.0,0 STARLINK-3829,1 52348U 22045T   22154.83392820  .00425209  00000-0  27971-2 0  9994,2 52348  53.2139 263.3082 0003042 351.9429   8.1542 15.73910000  8052,6725.871999999999,91.492,349.783,345.691,0.0
52348.0,STARLINK-3829,PAYLOAD,2022-06-03 21:32:28,15.73303725,0.000312,53.2135,262.9943,33.9271,326.1948,1.6465999999999998e-05,1.698e-05,0.0,0 STARLINK-3829,1 52348U 22045T   22154.89755621  .00001698  00000-0  16466-4 0  9993,2 52348  53.2135 262.9943 0003120  33.9271 326.1948 15.73303725  8062,6727.599,91.527,351.56300000000016,347.365,0.0
52348.0,STARLINK-3829,PAYLOAD,2022-06-04 06:41:28,15.73237435,0.0002063,53.2123,261.1076,26.3353,333.7772,7.5032e-05,9.939e-05,0.0,0 STARLINK-3829,1 52348U 22045T   22155.27879758  .00009939  00000-0  75032-4 0  9994,2 52348  53.2123 261.1076 0002063  26.3353 333.7772 15.73237435  8129,6727.788000000001,91.531,351.041,348.266,0.0
52348.0,STARLINK-3829,PAYLOAD,2022-06-05 22:00:00,15.73252049,0.0002055,53.2152,253.0036,14.2066,267.4497,-0.0010743,-0.00149099,0.0,0 STARLINK-3829,1 52348U 22045T   22156.91667824 -.00149099  00000-0 -10743-2 0  9995,2 52348  53.2152 253.0036 0002055  14.2066 267.4497 15.73252049  8377,6727.746999999999,91.53,350.994,348.22900000000016,0.0
52348.0,STARLINK-3829,PAYLOAD,2022-06-06 06:00:00,15.73190805,0.0002059,53.2144,251.3537,19.21,351.3705,0.00036753,0.00051257,0.0,0 STARLINK-3829,1 52348U 22045T   22157.25001157  .00051257  00000-0  36753-3 0  9990,2 52348  53.2144 251.3537 0002059  19.2100 351.3705 15.73190805  8436,6727.920999999999,91.534,351.172,348.401,0.0
52348.0,STARLINK-3829,PAYLOAD,2022-06-06 14:00:01,15.73237102,0.0002398,53.2139,249.7064,19.7135,79.8025,-0.00033683,-0.00047708,0.0,0 STARLINK-3829,1 52348U 22045T   22157.58334491 -.00047708  00000-0 -33683-3 0  9993,2 52348  53.2139 249.7064 0002398  19.7135  79.8025 15.73237102  1303,6727.7890000000025,91.531,351.26800000000014,348.041,0.0
52348.0,STARLINK-3829,PAYLOAD,2022-06-06 22:00:00,15.73213266,0.0002395,53.2135,248.0556,22.6947,165.7959,-0.00025376,-0.00036108,0.0,0 STARLINK-3829,1 52348U 22045T   22157.91667824 -.00036108  00000-0 -25376-3 0  9991,2 52348  53.2135 248.0556 0002395  22.6947 165.7959 15.73213266  8536,6727.857,91.532,351.334,348.111,0.0
